[{"OBJECT_NAME":"PRAETORIAN SDA_606","OBJECT_ID":"2025-203E","EPOCH":"2026-03-09T13:52:35.845824","MEAN_MOTION":13.83528814,"ECCENTRICITY":0.0007292,"INCLINATION":81.3028,"RA_OF_ASC_NODE":103.1011,"ARG_OF_PERICENTER":99.5197,"MEAN_ANOMALY":260.6784,"EPHEMERIS_TYPE":0,"CLASSIFICATION_TYPE":"U","NORAD_CAT_ID":65569,"ELEMENT_SET_NO":999,"REV_AT_EPOCH":2491,"BSTAR":0.0002082,"MEAN_MOTION_DOT":2.41e-6,"MEAN_MOTION_DDOT":0},{"OBJECT_NAME":"DELTA 1 DEB","OBJECT_ID":"1977-065FU","EPOCH":"2026-03-09T02:05:59.962848","MEAN_MOTION":11.92953095,"ECCENTRICITY":0.09925933,"INCLINATION":28.9926,"RA_OF_ASC_NODE":49.3848,"ARG_OF_PERICENTER":54.3572,"MEAN_ANOMALY":11.0236,"EPHEMERIS_TYPE":0,"CLASSIFICATION_TYPE":"U","NORAD_CAT_ID":14839,"ELEMENT_SET_NO":999,"REV_AT_EPOCH":14784,"BSTAR":0.009426492,"MEAN_MOTION_DOT":2.929e-5,"MEAN_MOTION_DDOT":0}]
